IRIDIUM 155             
1 43573U 18061E   22144.85562626  .00000120  00000+0  35801-4 0  9994
2 43573  86.3935 317.0051 0002183  98.8320 261.3123 14.34219712200609
IRIDIUM 154             
1 43574U 18061F   22144.83660767  .00000111  00000+0  32626-4 0  9990
2 43574  86.3939 317.0758 0001960  84.9775 275.1644 14.34218726200650
IRIDIUM 163             
1 43575U 18061G   22144.88733372  .00000143  00000+0  44030-4 0  9996
2 43575  86.3936 317.0151 0002451  83.5053 276.6422 14.34215825200630
IRIDIUM 156             
1 43576U 18061H   22145.48988858  .00000162  00000+0  50891-4 0  9998
2 43576  86.3936 316.7687 0002459  92.8708 267.2769 14.34217815200708
IRIDIUM 164             
1 43577U 18061J   22144.84293807  .00000129  00000+0  38939-4 0  9993
2 43577  86.3938 317.0569 0002084  85.0255 275.1179 14.34217003200666
IRIDIUM 159             
1 43578U 18061K   22144.88099469  .00000145  00000+0  44801-4 0  9999
2 43578  86.3935 317.0090 0002020  86.1496 273.9931 14.34216119200638
IRIDIUM 180             
1 43922U 19002A   22144.81074207  .00000312  00000+0  10446-3 0  9997
2 43922  86.3982 253.8715 0002018  75.9719 284.1701 14.34221723176239
IRIDIUM 176             
1 43923U 19002B   22144.81213782  .00001134  00000+0  17591-3 0  9992
2 43923  86.6116 253.9054 0002459  96.5341 263.6157 14.72270771180857
IRIDIUM 168             
1 43924U 19002C   22144.80438117  .00000302  00000+0  10061-3 0  9994
2 43924  86.3985 253.9093 0002023  90.3718 269.7709 14.34223082176215
IRIDIUM 173             
1 43925U 19002D   22144.37308902  .00000723  00000+0  25102-3 0  9994
2 43925  86.3981 254.0393 0002134  89.4060 270.7380 14.34216401176134
IRIDIUM 169             
1 43926U 19002E   22144.86247193  .00000418  00000+0  13011-3 0  9990
2 43926  86.4202 285.4479 0004869 164.1010 196.0342 14.38615176176828
IRIDIUM 172             
1 43927U 19002F   22144.85514032  .00000301  00000+0  10047-3 0  9996
2 43927  86.3981 253.8410 0002078  88.0351 272.1083 14.34221779176217
IRIDIUM 175             
1 43928U 19002G   22144.80599344  .00001149  00000+0  17830-3 0  9999
2 43928  86.6120 253.7377 0002143  92.9984 267.1478 14.72257404180848
IRIDIUM 171             
1 43929U 19002H   22145.39424665  .00000286  00000+0  95064-4 0  9995
2 43929  86.3991 253.7575 0001998  91.1513 268.9912 14.34222635176289
IRIDIUM 170             
1 43930U 19002J   22144.81835157  .00001150  00000+0  17837-3 0  9997
2 43930  86.6116 253.9081 0002091  97.3974 262.7481 14.72272989180862
IRIDIUM 167             
1 43931U 19002K   22144.82976797  .00000303  00000+0  10128-3 0  9990
2 43931  86.3983 253.8612 0001980  83.5978 276.5443 14.34222028176209
